start=new Date('2022-10-28T00:00:00.000Z').valueOf();
sats=[{"PERIOD":"95.438","EPHEMERIS_TYPE":"0","REF_FRAME":"TEME","ECCENTRICITY":"0.00022570","ARG_OF_PERICENTER":"44.7488","CLASSIFICATION_TYPE":"U","REV_AT_EPOCH":"2602","ELEMENT_SET_NO":"999","MEAN_MOTION_DDOT":"0.0000000000000","TLE_LINE2":"2 52540  53.2167 244.9419 0002257  44.7488 315.3686 15.08840126 26023","OBJECT_ID":"2022-051H","FILE":"3636002","MEAN_MOTION_DOT":"-0.00000226","BSTAR":"0.00000391990000","MEAN_ANOMALY":"315.3686","EPOCH":"2022-10-27T23:56:00.627936","CENTER_NAME":"EARTH","MEAN_MOTION":"15.08840126","TIME_SYSTEM":"UTC","GP_ID":"216313332","LAUNCH_DATE":"2022-05-13","DECAY_DATE":null,"NORAD_CAT_ID":"52540","SITE":"AFWTR","OBJECT_TYPE":"PAYLOAD","OBJECT_NAME":"STARLINK-3940","RA_OF_ASC_NODE":"244.9419","MEAN_ELEMENT_THEORY":"SGP4","PERIAPSIS":"538.184","APOAPSIS":"541.306","COUNTRY_CODE":"US","INCLINATION":"53.2167","TLE_LINE1":"1 52540U 22051H   22300.99722949 -.00000226  00000-0  39199-5 0  9991","RCS_SIZE":"LARGE","SEMIMAJOR_AXIS":"6917.880"},{"PERIAPSIS":"538.448","MEAN_ELEMENT_THEORY":"SGP4","RA_OF_ASC_NODE":"251.8616","OBJECT_NAME":"STARLINK-3845","SITE":"AFWTR","NORAD_CAT_ID":"52541","OBJECT_TYPE":"PAYLOAD","INCLINATION":"53.2152","COUNTRY_CODE":"US","APOAPSIS":"540.971","SEMIMAJOR_AXIS":"6917.845","RCS_SIZE":"LARGE","TLE_LINE1":"1 52541U 22051J   22300.56805213  .00005399  00000-0  35696-3 0  9992","CLASSIFICATION_TYPE":"U","ELEMENT_SET_NO":"999","REV_AT_EPOCH":"2581","ARG_OF_PERICENTER":"45.9192","REF_FRAME":"TEME","ECCENTRICITY":"0.00018240","EPHEMERIS_TYPE":"0","PERIOD":"95.437","BSTAR":"0.00035696000000","MEAN_MOTION_DOT":"0.00005399","FILE":"3636022","TLE_LINE2":"2 52541  53.2152 251.8616 0001824  45.9192 314.1950 15.08851731 25819","OBJECT_ID":"2022-051J","MEAN_MOTION_DDOT":"0.0000000000000","MEAN_MOTION":"15.08851731","CENTER_NAME":"EARTH","MEAN_ANOMALY":"314.1950","EPOCH":"2022-10-27T13:37:59.704032","DECAY_DATE":null,"LAUNCH_DATE":"2022-05-13","TIME_SYSTEM":"UTC","GP_ID":"216338036"},{"BSTAR":"0.00042466000000","MEAN_MOTION_DOT":"0.00006480","FILE":"3635758","OBJECT_ID":"2022-051K","TLE_LINE2":"2 52542  53.2189 248.2243 0002053  39.7493 320.3649 15.08858474 25844","MEAN_MOTION_DDOT":"0.0000000000000","CLASSIFICATION_TYPE":"U","ELEMENT_SET_NO":"999","REV_AT_EPOCH":"2584","ARG_OF_PERICENTER":"39.7493","REF_FRAME":"TEME","ECCENTRICITY":"0.00020530","PERIOD":"95.436","EPHEMERIS_TYPE":"0","LAUNCH_DATE":"2022-05-13","DECAY_DATE":null,"GP_ID":"216305042","TIME_SYSTEM":"UTC","MEAN_MOTION":"15.08858474","CENTER_NAME":"EARTH","MEAN_ANOMALY":"320.3649","EPOCH":"2022-10-27T06:21:28.573920","PERIAPSIS":"538.269","MEAN_ELEMENT_THEORY":"SGP4","RA_OF_ASC_NODE":"248.2243","OBJECT_NAME":"STARLINK-3937","SITE":"AFWTR","OBJECT_TYPE":"PAYLOAD","NORAD_CAT_ID":"52542","SEMIMAJOR_AXIS":"6917.824","RCS_SIZE":"LARGE","TLE_LINE1":"1 52542U 22051K   22300.26491405  .00006480  00000-0  42466-3 0  9999","INCLINATION":"53.2189","COUNTRY_CODE":"US","APOAPSIS":"541.109"},{"SEMIMAJOR_AXIS":"6917.886","RCS_SIZE":"LARGE","TLE_LINE1":"1 52543U 22051L   22300.20971016  .00003288  00000-0  22461-3 0  9991","INCLINATION":"53.2159","COUNTRY_CODE":"US","APOAPSIS":"541.188","OBJECT_NAME":"STARLINK-3926","PERIAPSIS":"538.314","MEAN_ELEMENT_THEORY":"SGP4","RA_OF_ASC_NODE":"248.4800","NORAD_CAT_ID":"52543","SITE":"AFWTR","OBJECT_TYPE":"PAYLOAD","TIME_SYSTEM":"UTC","GP_ID":"216305793","LAUNCH_DATE":"2022-05-13","DECAY_DATE":null,"MEAN_MOTION":"15.08838084","MEAN_ANOMALY":"322.8110","EPOCH":"2022-10-27T05:01:58.957824","CENTER_NAME":"EARTH","FILE":"3635758","BSTAR":"0.00022461000000","MEAN_MOTION_DOT":"0.00003288","MEAN_MOTION_DDOT":"0.0000000000000","TLE_LINE2":"2 52543  53.2159 248.4800 0002077  37.3026 322.8110 15.08838084 25839","OBJECT_ID":"2022-051L","ARG_OF_PERICENTER":"37.3026","REV_AT_EPOCH":"2583","CLASSIFICATION_TYPE":"U","ELEMENT_SET_NO":"999","ECCENTRICITY":"0.00020770","REF_FRAME":"TEME","PERIOD":"95.438","EPHEMERIS_TYPE":"0"},{"TLE_LINE1":"1 52544U 22051M   22300.56068381  .00002303  00000-0  16280-3 0  9992","RCS_SIZE":"LARGE","SEMIMAJOR_AXIS":"6917.884","APOAPSIS":"541.549","COUNTRY_CODE":"US","INCLINATION":"53.2164","OBJECT_TYPE":"PAYLOAD","SITE":"AFWTR","NORAD_CAT_ID":"52544","OBJECT_NAME":"STARLINK-3944","RA_OF_ASC_NODE":"251.9061","MEAN_ELEMENT_THEORY":"SGP4","PERIAPSIS":"537.950","GP_ID":"216337281","TIME_SYSTEM":"UTC","DECAY_DATE":null,"LAUNCH_DATE":"2022-05-13","EPOCH":"2022-10-27T13:27:23.081184","MEAN_ANOMALY":"328.0281","CENTER_NAME":"EARTH","MEAN_MOTION":"15.08838748","MEAN_MOTION_DDOT":"0.0000000000000","TLE_LINE2":"2 52544  53.2164 251.9061 0002601  32.0869 328.0281 15.08838748 25816","OBJECT_ID":"2022-051M","FILE":"3636022","MEAN_MOTION_DOT":"0.00002303","BSTAR":"0.00016280000000","EPHEMERIS_TYPE":"0","PERIOD":"95.438","REF_FRAME":"TEME","ECCENTRICITY":"0.00026010","ARG_OF_PERICENTER":"32.0869","REV_AT_EPOCH":"2581","ELEMENT_SET_NO":"999","CLASSIFICATION_TYPE":"U"},{"EPOCH":"2022-10-28T00:01:18.395904","MEAN_ANOMALY":"324.5010","CENTER_NAME":"EARTH","MEAN_MOTION":"15.08850202","TIME_SYSTEM":"UTC","GP_ID":"216313207","LAUNCH_DATE":"2022-05-13","DECAY_DATE":null,"EPHEMERIS_TYPE":"0","PERIOD":"95.437","ECCENTRICITY":"0.00022140","REF_FRAME":"TEME","ARG_OF_PERICENTER":"35.6129","ELEMENT_SET_NO":"999","CLASSIFICATION_TYPE":"U","REV_AT_EPOCH":"2602","MEAN_MOTION_DDOT":"0.0000000000000","TLE_LINE2":"2 52545  53.2169 244.9309 0002214  35.6129 324.5010 15.08850202 26021","OBJECT_ID":"2022-051N","FILE":"3636002","MEAN_MOTION_DOT":"0.00001043","BSTAR":"0.00008363000000","APOAPSIS":"541.246","COUNTRY_CODE":"US","INCLINATION":"53.2169","RCS_SIZE":"LARGE","TLE_LINE1":"1 52545U 22051N   22301.00090736  .00001043  00000-0  83630-4 0  9996","SEMIMAJOR_AXIS":"6917.849","NORAD_CAT_ID":"52545","SITE":"AFWTR","OBJECT_TYPE":"PAYLOAD","OBJECT_NAME":"STARLINK-3939","RA_OF_ASC_NODE":"244.9309","MEAN_ELEMENT_THEORY":"SGP4","PERIAPSIS":"538.183"},{"MEAN_ANOMALY":"327.1968","EPOCH":"2022-10-27T06:12:15.487776","CENTER_NAME":"EARTH","MEAN_MOTION":"15.08845061","GP_ID":"216305543","TIME_SYSTEM":"UTC","DECAY_DATE":null,"LAUNCH_DATE":"2022-05-13","EPHEMERIS_TYPE":"0","PERIOD":"95.437","REF_FRAME":"TEME","ECCENTRICITY":"0.00021800","ARG_OF_PERICENTER":"32.9159","ELEMENT_SET_NO":"999","CLASSIFICATION_TYPE":"U","REV_AT_EPOCH":"2584","MEAN_MOTION_DDOT":"0.0000000000000","OBJECT_ID":"2022-051P","TLE_LINE2":"2 52546  53.2196 248.2597 0002180  32.9159 327.1968 15.08845061 25840","FILE":"3635758","MEAN_MOTION_DOT":"0.00005733","BSTAR":"0.00037797000000","APOAPSIS":"541.238","COUNTRY_CODE":"US","INCLINATION":"53.2196","TLE_LINE1":"1 52546U 22051P   22300.25851259  .00005733  00000-0  37797-3 0  9990","RCS_SIZE":"LARGE","SEMIMAJOR_AXIS":"6917.865","SITE":"AFWTR","OBJECT_TYPE":"PAYLOAD","NORAD_CAT_ID":"52546","OBJECT_NAME":"STARLINK-3948","RA_OF_ASC_NODE":"248.2597","MEAN_ELEMENT_THEORY":"SGP4","PERIAPSIS":"538.222"},{"APOAPSIS":"540.902","COUNTRY_CODE":"US","INCLINATION":"53.2169","TLE_LINE1":"1 52547U 22051Q   22300.96180335  .00001624  00000-0  12007-3 0  9991","RCS_SIZE":"LARGE","SEMIMAJOR_AXIS":"6917.850","NORAD_CAT_ID":"52547","SITE":"AFWTR","OBJECT_TYPE":"PAYLOAD","OBJECT_NAME":"STARLINK-3869","RA_OF_ASC_NODE":"250.1014","MEAN_ELEMENT_THEORY":"SGP4","PERIAPSIS":"538.527","EPOCH":"2022-10-27T23:04:59.809440","MEAN_ANOMALY":"327.9607","CENTER_NAME":"EARTH","MEAN_MOTION":"15.08850102","GP_ID":"216313208","TIME_SYSTEM":"UTC","DECAY_DATE":null,"LAUNCH_DATE":"2022-05-13","EPHEMERIS_TYPE":"0","PERIOD":"95.437","ECCENTRICITY":"0.00017160","REF_FRAME":"TEME","ARG_OF_PERICENTER":"32.1490","ELEMENT_SET_NO":"999","CLASSIFICATION_TYPE":"U","REV_AT_EPOCH":"2594","MEAN_MOTION_DDOT":"0.0000000000000","TLE_LINE2":"2 52547  53.2169 250.1014 0001716  32.1490 327.9607 15.08850102 25942","OBJECT_ID":"2022-051Q","FILE":"3636002","MEAN_MOTION_DOT":"0.00001624","BSTAR":"0.00012007000000"},{"FILE":"3636022","BSTAR":"0.00051998000000","MEAN_MOTION_DOT":"0.00008001","MEAN_MOTION_DDOT":"0.0000000000000","TLE_LINE2":"2 52548  53.2186 246.8336 0001849  51.9620 308.1539 15.08858578 25896","OBJECT_ID":"2022-051R","ARG_OF_PERICENTER":"51.9620","CLASSIFICATION_TYPE":"U","ELEMENT_SET_NO":"999","REV_AT_EPOCH":"2589","REF_FRAME":"TEME","ECCENTRICITY":"0.00018490","EPHEMERIS_TYPE":"0","PERIOD":"95.436","GP_ID":"216337781","TIME_SYSTEM":"UTC","DECAY_DATE":null,"LAUNCH_DATE":"2022-05-13","MEAN_MOTION":"15.08858578","EPOCH":"2022-10-27T13:46:36.044256","MEAN_ANOMALY":"308.1539","CENTER_NAME":"EARTH","OBJECT_NAME":"STARLINK-3931","MEAN_ELEMENT_THEORY":"SGP4","PERIAPSIS":"538.409","RA_OF_ASC_NODE":"246.8336","NORAD_CAT_ID":"52548","SITE":"AFWTR","OBJECT_TYPE":"PAYLOAD","SEMIMAJOR_AXIS":"6917.824","TLE_LINE1":"1 52548U 22051R   22300.57402829  .00008001  00000-0  51998-3 0  9992","RCS_SIZE":"LARGE","INCLINATION":"53.2186","COUNTRY_CODE":"US","APOAPSIS":"540.968"},{"INCLINATION":"53.2179","COUNTRY_CODE":"US","APOAPSIS":"541.035","SEMIMAJOR_AXIS":"6917.859","RCS_SIZE":"LARGE","TLE_LINE1":"1 52549U 22051S   22300.79114596  .00003874  00000-0  26134-3 0  9995","MEAN_ELEMENT_THEORY":"SGP4","PERIAPSIS":"538.412","RA_OF_ASC_NODE":"245.8555","OBJECT_NAME":"STARLINK-3935","NORAD_CAT_ID":"52549","SITE":"AFWTR","OBJECT_TYPE":"PAYLOAD","MEAN_MOTION":"15.08847121","CENTER_NAME":"EARTH","MEAN_ANOMALY":"310.6500","EPOCH":"2022-10-27T18:59:15.010944","LAUNCH_DATE":"2022-05-13","DECAY_DATE":null,"GP_ID":"216338037","TIME_SYSTEM":"UTC","REV_AT_EPOCH":"2592","CLASSIFICATION_TYPE":"U","ELEMENT_SET_NO":"999","ARG_OF_PERICENTER":"49.4657","ECCENTRICITY":"0.00018960","REF_FRAME":"TEME","PERIOD":"95.437","EPHEMERIS_TYPE":"0","BSTAR":"0.00026134000000","MEAN_MOTION_DOT":"0.00003874","FILE":"3636022","TLE_LINE2":"2 52549  53.2179 245.8555 0001896  49.4657 310.6500 15.08847121 25927","OBJECT_ID":"2022-051S","MEAN_MOTION_DDOT":"0.0000000000000"}];
